[
    {
        "Altitude(m)": 604221.2288852693,
        "Argument of Periapsis(deg)": 0.0,
        "Eccentricity": 0.0,
        "Inclination(deg)": 60.0,
        "Latitude(deg)": 14.117385900142725,
        "Longitude(deg)": 88.33414508503424,
        "Mean Anomaly(deg)": 16.363600000000012,
        "RAAN(deg)": 180.0,
        "Satellite Name": "Test1 793",
        "Satellite Number": 793,
        "Semi-Major Axis(m)": 6980739.136638005,
        "Time(s)": 0
    },
    {
        "Altitude(m)": 604235.3706789783,
        "Argument of Periapsis(deg)": 0.00010418945913296404,
        "Eccentricity": 0.0,
        "Inclination(deg)": 60.0,
        "Latitude(deg)": 14.651782830976243,
        "Longitude(deg)": 88.62259186710583,
        "Mean Anomaly(deg)": 16.983706145461838,
        "RAAN(deg)": 179.99957995086024,
        "Satellite Name": "Test1 793",
        "Satellite Number": 793,
        "Semi-Major Axis(m)": 6980739.136638005,
        "Time(s)": 10
    },
    {
        "Altitude(m)": 604252.4095635875,
        "Argument of Periapsis(deg)": 0.0002083789182659281,
        "Eccentricity": 0.0,
        "Inclination(deg)": 60.0,
        "Latitude(deg)": 15.185689946714836,
        "Longitude(deg)": 88.91264166259592,
        "Mean Anomaly(deg)": 17.603812290923667,
        "RAAN(deg)": 179.99915990172053,
        "Satellite Name": "Test1 793",
        "Satellite Number": 793,
        "Semi-Major Axis(m)": 6980739.136638005,
        "Time(s)": 20
    },
    {
        "Altitude(m)": 604272.3137099368,
        "Argument of Periapsis(deg)": 0.00031256837739889213,
        "Eccentricity": 0.0,
        "Inclination(deg)": 60.0,
        "Latitude(deg)": 15.719085942749517,
        "Longitude(deg)": 89.2043619838406,
        "Mean Anomaly(deg)": 18.223918436385496,
        "RAAN(deg)": 179.99873985258077,
        "Satellite Name": "Test1 793",
        "Satellite Number": 793,
        "Semi-Major Axis(m)": 6980739.136638005,
        "Time(s)": 30
    },
    {
        "Altitude(m)": 604295.0500141236,
        "Argument of Periapsis(deg)": 0.0004167578365318562,
        "Eccentricity": 0.0,
        "Inclination(deg)": 60.0,
        "Latitude(deg)": 16.251949178752156,
        "Longitude(deg)": 89.49782186580202,
        "Mean Anomaly(deg)": 18.84402458184732,
        "RAAN(deg)": 179.99831980344103,
        "Satellite Name": "Test1 793",
        "Satellite Number": 793,
        "Semi-Major Axis(m)": 6980739.136638005,
        "Time(s)": 40
    },
    {
        "Altitude(m)": 604320.5841164609,
        "Argument of Periapsis(deg)": 0.0005209472956648203,
        "Eccentricity": 0.0,
        "Inclination(deg)": 60.0,
        "Latitude(deg)": 16.784257662638737,
        "Longitude(deg)": 89.79309090164887,
        "Mean Anomaly(deg)": 19.46413072730915,
        "RAAN(deg)": 179.99789975430127,
        "Satellite Name": "Test1 793",
        "Satellite Number": 793,
        "Semi-Major Axis(m)": 6980739.136638005,
        "Time(s)": 50
    },
    {
        "Altitude(m)": 604348.8804209873,
        "Argument of Periapsis(deg)": 0.0006251367547977843,
        "Eccentricity": 0.0,
        "Inclination(deg)": 60.0,
        "Latitude(deg)": 17.315989034049846,
        "Longitude(deg)": 90.09023979206533,
        "Mean Anomaly(deg)": 20.084236872770976,
        "RAAN(deg)": 179.99747970516157,
        "Satellite Name": "Test1 793",
        "Satellite Number": 793,
        "Semi-Major Axis(m)": 6980739.136638005,
        "Time(s)": 60
    },
    {
        "Altitude(m)": 604379.902115583,
        "Argument of Periapsis(deg)": 0.0007293262139307483,
        "Eccentricity": 0.0,
        "Inclination(deg)": 60.0,
        "Latitude(deg)": 17.847120547324955,
        "Longitude(deg)": 90.38934089543906,
        "Mean Anomaly(deg)": 20.70434301823283,
        "RAAN(deg)": 179.9970596560218,
        "Satellite Name": "Test1 793",
        "Satellite Number": 793,
        "Semi-Major Axis(m)": 6980739.136638005,
        "Time(s)": 70
    },
    {
        "Altitude(m)": 604413.6111926434,
        "Argument of Periapsis(deg)": 0.0008335156730637124,
        "Eccentricity": 0.0,
        "Inclination(deg)": 60.0,
        "Latitude(deg)": 18.377629053945817,
        "Longitude(deg)": 90.69046726607907,
        "Mean Anomaly(deg)": 21.32444916369466,
        "RAAN(deg)": 179.99663960688207,
        "Satellite Name": "Test1 793",
        "Satellite Number": 793,
        "Semi-Major Axis(m)": 6980739.136638005,
        "Time(s)": 80
    },
    {
        "Altitude(m)": 604449.9684703178,
        "Argument of Periapsis(deg)": 0.0009377051321966765,
        "Eccentricity": 0.0,
        "Inclination(deg)": 60.0,
        "Latitude(deg)": 18.907490984425355,
        "Longitude(deg)": 90.99369320623333,
        "Mean Anomaly(deg)": 21.944555309156485,
        "RAAN(deg)": 179.9962195577423,
        "Satellite Name": "Test1 793",
        "Satellite Number": 793,
        "Semi-Major Axis(m)": 6980739.136638005,
        "Time(s)": 90
    },
    {
        "Altitude(m)": 604488.9336143313,
        "Argument of Periapsis(deg)": 0.0010418945913296407,
        "Eccentricity": 0.0,
        "Inclination(deg)": 60.0,
        "Latitude(deg)": 19.436682329615742,
        "Longitude(deg)": 91.29909481905564,
        "Mean Anomaly(deg)": 22.564661454618314,
        "RAAN(deg)": 179.9957995086026,
        "Satellite Name": "Test1 793",
        "Satellite Number": 793,
        "Semi-Major Axis(m)": 6980739.136638005,
        "Time(s)": 100
    },
    {
        "Altitude(m)": 604530.4651602965,
        "Argument of Periapsis(deg)": 0.0011460840504626045,
        "Eccentricity": 0.0,
        "Inclination(deg)": 60.0,
        "Latitude(deg)": 19.965178621409454,
        "Longitude(deg)": 91.60674904966508,
        "Mean Anomaly(deg)": 23.18476760008014,
        "RAAN(deg)": 179.9953794594628,
        "Satellite Name": "Test1 793",
        "Satellite Number": 793,
        "Semi-Major Axis(m)": 6980739.136638005,
        "Time(s)": 110
    },
    {
        "Altitude(m)": 604574.5205365835,
        "Argument of Periapsis(deg)": 0.0012502735095955685,
        "Eccentricity": 0.0,
        "Inclination(deg)": 60.0,
        "Latitude(deg)": 20.492954912806667,
        "Longitude(deg)": 91.91673424006656,
        "Mean Anomaly(deg)": 23.80487374554197,
        "RAAN(deg)": 179.99495941032308,
        "Satellite Name": "Test1 793",
        "Satellite Number": 793,
        "Semi-Major Axis(m)": 6980739.136638005,
        "Time(s)": 120
    },
    {
        "Altitude(m)": 604621.0560877051,
        "Argument of Periapsis(deg)": 0.0013544629687285324,
        "Eccentricity": 0.0,
        "Inclination(deg)": 60.0,
        "Latitude(deg)": 21.019985757320857,
        "Longitude(deg)": 92.22913068507239,
        "Mean Anomaly(deg)": 24.424979891003794,
        "RAAN(deg)": 179.99453936118334,
        "Satellite Name": "Test1 793",
        "Satellite Number": 793,
        "Semi-Major Axis(m)": 6980739.136638005,
        "Time(s)": 130
    },
    {
        "Altitude(m)": 604670.0270981818,
        "Argument of Periapsis(deg)": 0.0014586524278614966,
        "Eccentricity": 0.0,
        "Inclination(deg)": 60.0,
        "Latitude(deg)": 21.546245187693653,
        "Longitude(deg)": 92.54401967636548,
        "Mean Anomaly(deg)": 25.045086036465623,
        "RAAN(deg)": 179.9941193120436,
        "Satellite Name": "Test1 793",
        "Satellite Number": 793,
        "Semi-Major Axis(m)": 6980739.136638005,
        "Time(s)": 140
    },
    {
        "Altitude(m)": 604721.3878169297,
        "Argument of Periapsis(deg)": 0.0015628418869944607,
        "Eccentricity": 0.0,
        "Inclination(deg)": 60.0,
        "Latitude(deg)": 22.071706693889837,
        "Longitude(deg)": 92.86148406046205,
        "Mean Anomaly(deg)": 25.66519218192745,
        "RAAN(deg)": 179.99369926290385,
        "Satellite Name": "Test1 793",
        "Satellite Number": 793,
        "Semi-Major Axis(m)": 6980739.136638005,
        "Time(s)": 150
    },
    {
        "Altitude(m)": 604775.091482076,
        "Argument of Periapsis(deg)": 0.0016670313461274247,
        "Eccentricity": 0.0,
        "Inclination(deg)": 60.0,
        "Latitude(deg)": 22.596343200342016,
        "Longitude(deg)": 93.18160879770811,
        "Mean Anomaly(deg)": 26.285298327389278,
        "RAAN(deg)": 179.9932792137641,
        "Satellite Name": "Test1 793",
        "Satellite Number": 793,
        "Semi-Major Axis(m)": 6980739.136638005,
        "Time(s)": 160
    },
    {
        "Altitude(m)": 604831.090346295,
        "Argument of Periapsis(deg)": 0.0017712208052603888,
        "Eccentricity": 0.0,
        "Inclination(deg)": 60.0,
        "Latitude(deg)": 23.120127042413195,
        "Longitude(deg)": 93.50448000943814,
        "Mean Anomaly(deg)": 26.90540447285113,
        "RAAN(deg)": 179.99285916462438,
        "Satellite Name": "Test1 793",
        "Satellite Number": 793,
        "Semi-Major Axis(m)": 6980739.136638005,
        "Time(s)": 170
    },
    {
        "Altitude(m)": 604889.3357025384,
        "Argument of Periapsis(deg)": 0.001875410264393353,
        "Eccentricity": 0.0,
        "Inclination(deg)": 60.0,
        "Latitude(deg)": 23.6430299420457,
        "Longitude(deg)": 93.83018553904581,
        "Mean Anomaly(deg)": 27.525510618312957,
        "RAAN(deg)": 179.99243911548464,
        "Satellite Name": "Test1 793",
        "Satellite Number": 793,
        "Semi-Major Axis(m)": 6980739.136638005,
        "Time(s)": 180
    },
    {
        "Altitude(m)": 604949.7779102337,
        "Argument of Periapsis(deg)": 0.0019795997235263173,
        "Eccentricity": 0.0,
        "Inclination(deg)": 60.0,
        "Latitude(deg)": 24.165022982563368,
        "Longitude(deg)": 94.15881551408683,
        "Mean Anomaly(deg)": 28.14561676377479,
        "RAAN(deg)": 179.99201906634488,
        "Satellite Name": "Test1 793",
        "Satellite Number": 793,
        "Semi-Major Axis(m)": 6980739.136638005,
        "Time(s)": 190
    }
]